<?xml version="1.0" encoding="UTF-8"?>
<kml xmlns="http://www.opengis.net/kml/2.2"><Document><name>бег#заЧанку — 10 км за Чанку и обратно</name><description>Старт и финиш: вход в лесопарк у Волковского шоссе, Мытищи. Каждый четверг в 20:00. zachanku.ru</description>
<Style id="t"><LineStyle><color>ff47c2ff</color><width>4</width></LineStyle></Style>
<Placemark><name>Сбор, старт и финиш</name><Point><coordinates>37.707142,55.922910,0</coordinates></Point></Placemark>
<Placemark><name>бег#заЧанку — 10 км за Чанку и обратно</name><styleUrl>#t</styleUrl><LineString><tessellate>1</tessellate><coordinates>37.707142,55.922910,0 37.707193,55.922944,0 37.707277,55.922993,0 37.707339,55.923037,0 37.707398,55.923082,0 37.707451,55.923135,0 37.707491,55.923192,0 37.707524,55.923253,0 37.707549,55.923321,0 37.707555,55.923387,0 37.707548,55.923448,0 37.707547,55.923499,0 37.707553,55.923562,0 37.707553,55.923621,0 37.707551,55.923685,0 37.707551,55.923736,0 37.707568,55.923802,0 37.707578,55.923848,0 37.707587,55.923898,0 37.707601,55.923971,0 37.707609,55.924023,0 37.707615,55.924079,0 37.707618,55.924125,0 37.707620,55.924180,0 37.707618,55.924232,0 37.707615,55.924281,0 37.707610,55.924333,0 37.707604,55.924384,0 37.707599,55.924440,0 37.707594,55.924489,0 37.707592,55.924548,0 37.707592,55.924604,0 37.707593,55.924656,0 37.707597,55.924711,0 37.707607,55.924787,0 37.707614,55.924837,0 37.707613,55.924915,0 37.707604,55.924975,0 37.707595,55.925034,0 37.707592,55.925094,0 37.707597,55.925155,0 37.707603,55.925223,0 37.707606,55.925287,0 37.707605,55.925347,0 37.707598,55.925406,0 37.707594,55.925471,0 37.707596,55.925537,0 37.707599,55.925605,0 37.707601,55.925665,0 37.707602,55.925716,0 37.707600,55.925766,0 37.707605,55.925811,0 37.707617,55.925859,0 37.707632,55.925925,0 37.707637,55.925979,0 37.707631,55.926043,0 37.707624,55.926092,0 37.707613,55.926164,0 37.707605,55.926220,0 37.707599,55.926286,0 37.707593,55.926346,0 37.707586,55.926418,0 37.707579,55.926483,0 37.707572,55.926556,0 37.707567,55.926615,0 37.707564,55.926674,0 37.707563,55.926735,0 37.707563,55.926789,0 37.707563,55.926841,0 37.707568,55.926890,0 37.707591,55.926962,0 37.707608,55.927018,0 37.707613,55.927085,0 37.707613,55.927147,0 37.707612,55.927215,0 37.707613,55.927270,0 37.707615,55.927317,0 37.707617,55.927374,0 37.707619,55.927430,0 37.707622,55.927485,0 37.707627,55.927541,0 37.707633,55.927608,0 37.707639,55.927668,0 37.707644,55.927736,0 37.707649,55.927791,0 37.707653,55.927851,0 37.707657,55.927906,0 37.707661,55.927961,0 37.707667,55.928029,0 37.707672,55.928092,0 37.707677,55.928139,0 37.707683,55.928205,0 37.707687,55.928255,0 37.707690,55.928309,0 37.707692,55.928375,0 37.707691,55.928432,0 37.707691,55.928489,0 37.707694,55.928546,0 37.707698,55.928609,0 37.707703,55.928660,0 37.707706,55.928718,0 37.707708,55.928770,0 37.707706,55.928817,0 37.707701,55.928884,0 37.707690,55.928938,0 37.707679,55.929002,0 37.707682,55.929060,0 37.707686,55.929114,0 37.707693,55.929167,0 37.707704,55.929229,0 37.707716,55.929290,0 37.707723,55.929341,0 37.707728,55.929386,0 37.707732,55.929441,0 37.707734,55.929489,0 37.707736,55.929546,0 37.707735,55.929597,0 37.707732,55.929657,0 37.707726,55.929717,0 37.707721,55.929780,0 37.707719,55.929830,0 37.707721,55.929886,0 37.707724,55.929936,0 37.707727,55.929989,0 37.707729,55.930058,0 37.707724,55.930121,0 37.707703,55.930196,0 37.707685,55.930250,0 37.707682,55.930314,0 37.707695,55.930374,0 37.707727,55.930434,0 37.707751,55.930485,0 37.707762,55.930545,0 37.707768,55.930599,0 37.707763,55.930653,0 37.707761,55.930733,0 37.707754,55.930779,0 37.707745,55.930838,0 37.707731,55.930910,0 37.707720,55.930962,0 37.707719,55.931029,0 37.707719,55.931100,0 37.707720,55.931162,0 37.707723,55.931230,0 37.707729,55.931284,0 37.707739,55.931340,0 37.707751,55.931392,0 37.707762,55.931446,0 37.707774,55.931517,0 37.707781,55.931566,0 37.707786,55.931621,0 37.707791,55.931675,0 37.707795,55.931734,0 37.707800,55.931789,0 37.707804,55.931841,0 37.707809,55.931890,0 37.707815,55.931940,0 37.707822,55.931995,0 37.707828,55.932044,0 37.707835,55.932111,0 37.707834,55.932168,0 37.707824,55.932233,0 37.707809,55.932295,0 37.707796,55.932357,0 37.707786,55.932405,0 37.707767,55.932458,0 37.707744,55.932524,0 37.707739,55.932576,0 37.707742,55.932628,0 37.707748,55.932677,0 37.707753,55.932730,0 37.707752,55.932779,0 37.707748,55.932831,0 37.707745,55.932886,0 37.707740,55.932950,0 37.707730,55.933021,0 37.707720,55.933108,0 37.707713,55.933188,0 37.707715,55.933263,0 37.707728,55.933330,0 37.707746,55.933392,0 37.707762,55.933446,0 37.707772,55.933502,0 37.707784,55.933575,0 37.707792,55.933623,0 37.707802,55.933690,0 37.707811,55.933745,0 37.707818,55.933800,0 37.707817,55.933861,0 37.707811,55.933929,0 37.707805,55.933979,0 37.707800,55.934032,0 37.707801,55.934096,0 37.707803,55.934149,0 37.707809,55.934200,0 37.707818,55.934254,0 37.707830,55.934300,0 37.707865,55.934374,0 37.707897,55.934429,0 37.707902,55.934493,0 37.707899,55.934555,0 37.707889,55.934619,0 37.707877,55.934670,0 37.707866,55.934720,0 37.707855,55.934775,0 37.707846,55.934828,0 37.707841,55.934886,0 37.707840,55.934941,0 37.707842,55.934994,0 37.707846,55.935054,0 37.707850,55.935104,0 37.707852,55.935159,0 37.707855,55.935212,0 37.707865,55.935302,0 37.707869,55.935350,0 37.707872,55.935412,0 37.707875,55.935460,0 37.707879,55.935513,0 37.707885,55.935564,0 37.707891,55.935619,0 37.707899,55.935671,0 37.707906,55.935720,0 37.707911,55.935771,0 37.707913,55.935820,0 37.707910,55.935876,0 37.707906,55.935928,0 37.707902,55.935974,0 37.707894,55.936042,0 37.707888,55.936096,0 37.707882,55.936142,0 37.707876,55.936201,0 37.707871,55.936265,0 37.707867,55.936336,0 37.707864,55.936397,0 37.707863,55.936464,0 37.707865,55.936521,0 37.707868,55.936566,0 37.707873,55.936627,0 37.707877,55.936678,0 37.707888,55.936741,0 37.707894,55.936808,0 37.707891,55.936878,0 37.707887,55.936931,0 37.707882,55.936991,0 37.707874,55.937049,0 37.707867,55.937102,0 37.707863,55.937153,0 37.707864,55.937208,0 37.707869,55.937257,0 37.707877,55.937307,0 37.707886,55.937354,0 37.707896,55.937401,0 37.707911,55.937460,0 37.707926,55.937524,0 37.707939,55.937586,0 37.707951,55.937652,0 37.707956,55.937706,0 37.707961,55.937770,0 37.707974,55.937845,0 37.707997,55.937910,0 37.708023,55.937969,0 37.708050,55.938034,0 37.708068,55.938099,0 37.708067,55.938168,0 37.708058,55.938234,0 37.708048,55.938303,0 37.708035,55.938384,0 37.708027,55.938435,0 37.708021,55.938504,0 37.708019,55.938556,0 37.708019,55.938618,0 37.708021,55.938677,0 37.708025,55.938738,0 37.708029,55.938794,0 37.708032,55.938851,0 37.708031,55.938919,0 37.708029,55.938971,0 37.708027,55.939019,0 37.708026,55.939064,0 37.708026,55.939112,0 37.708025,55.939157,0 37.708023,55.939206,0 37.708021,55.939253,0 37.708017,55.939304,0 37.708014,55.939353,0 37.708012,55.939405,0 37.708010,55.939454,0 37.708007,55.939503,0 37.708005,55.939548,0 37.708004,55.939617,0 37.708004,55.939678,0 37.708004,55.939758,0 37.708005,55.939807,0 37.708005,55.939857,0 37.708005,55.939908,0 37.708004,55.939963,0 37.708003,55.940015,0 37.708002,55.940069,0 37.708003,55.940119,0 37.708004,55.940165,0 37.708004,55.940219,0 37.708002,55.940284,0 37.708001,55.940339,0 37.708001,55.940385,0 37.708002,55.940437,0 37.708005,55.940490,0 37.708008,55.940548,0 37.708009,55.940599,0 37.708011,55.940661,0 37.708013,55.940718,0 37.708014,55.940769,0 37.708015,55.940817,0 37.708017,55.940863,0 37.708018,55.940915,0 37.708023,55.940979,0 37.708035,55.941044,0 37.708052,55.941107,0 37.708051,55.941154,0 37.708073,55.941213,0 37.708058,55.941262,0 37.708044,55.941329,0 37.708026,55.941396,0 37.708014,55.941457,0 37.708005,55.941511,0 37.708000,55.941566,0 37.707998,55.941622,0 37.707997,55.941683,0 37.707995,55.941734,0 37.707991,55.941791,0 37.707987,55.941842,0 37.707981,55.941887,0 37.707968,55.941952,0 37.707959,55.942009,0 37.707960,55.942061,0 37.707965,55.942123,0 37.707970,55.942180,0 37.707973,55.942242,0 37.707974,55.942291,0 37.707978,55.942360,0 37.707981,55.942406,0 37.707987,55.942477,0 37.707991,55.942524,0 37.707996,55.942575,0 37.708003,55.942634,0 37.708007,55.942697,0 37.708008,55.942772,0 37.708009,55.942827,0 37.708005,55.942892,0 37.708000,55.942938,0 37.707994,55.942984,0 37.707987,55.943032,0 37.707979,55.943095,0 37.707972,55.943154,0 37.707970,55.943217,0 37.707972,55.943284,0 37.707975,55.943356,0 37.707979,55.943423,0 37.707982,55.943490,0 37.707984,55.943555,0 37.707985,55.943623,0 37.707987,55.943681,0 37.707989,55.943748,0 37.707991,55.943815,0 37.707994,55.943886,0 37.707999,55.943951,0 37.708006,55.944009,0 37.708014,55.944056,0 37.708022,55.944103,0 37.708040,55.944156,0 37.708078,55.944220,0 37.708090,55.944276,0 37.708091,55.944334,0 37.708089,55.944402,0 37.708087,55.944447,0 37.708088,55.944496,0 37.708089,55.944556,0 37.708089,55.944609,0 37.708087,55.944672,0 37.708083,55.944726,0 37.708077,55.944787,0 37.708070,55.944837,0 37.708062,55.944887,0 37.708055,55.944940,0 37.708048,55.945001,0 37.708044,55.945059,0 37.708042,55.945119,0 37.708041,55.945175,0 37.708040,55.945231,0 37.708037,55.945278,0 37.708029,55.945347,0 37.708017,55.945409,0 37.708016,55.945465,0 37.708018,55.945517,0 37.708022,55.945579,0 37.708026,55.945637,0 37.708029,55.945693,0 37.708032,55.945738,0 37.708031,55.945798,0 37.708026,55.945857,0 37.708021,55.945906,0 37.708010,55.945969,0 37.708006,55.946022,0 37.708005,55.946091,0 37.708007,55.946156,0 37.708011,55.946206,0 37.708018,55.946259,0 37.708031,55.946332,0 37.708044,55.946391,0 37.708061,55.946449,0 37.708081,55.946523,0 37.708099,55.946591,0 37.708110,55.946637,0 37.708115,55.946696,0 37.708120,55.946747,0 37.708126,55.946798,0 37.708132,55.946856,0 37.708135,55.946905,0 37.708137,55.946962,0 37.708137,55.947007,0 37.708138,55.947060,0 37.708138,55.947110,0 37.708139,55.947164,0 37.708141,55.947210,0 37.708146,55.947264,0 37.708156,55.947331,0 37.708164,55.947384,0 37.708173,55.947446,0 37.708174,55.947494,0 37.708168,55.947553,0 37.708153,55.947612,0 37.708141,55.947659,0 37.708122,55.947723,0 37.708106,55.947784,0 37.708099,55.947830,0 37.708094,55.947894,0 37.708093,55.947942,0 37.708094,55.948005,0 37.708100,55.948063,0 37.708106,55.948108,0 37.708118,55.948168,0 37.708126,55.948222,0 37.708135,55.948272,0 37.708145,55.948333,0 37.708153,55.948387,0 37.708161,55.948450,0 37.708168,55.948511,0 37.708174,55.948575,0 37.708181,55.948637,0 37.708188,55.948693,0 37.708195,55.948752,0 37.708200,55.948820,0 37.708198,55.948872,0 37.708192,55.948923,0 37.708184,55.948981,0 37.708175,55.949039,0 37.708170,55.949090,0 37.708165,55.949159,0 37.708164,55.949216,0 37.708163,55.949265,0 37.708163,55.949315,0 37.708163,55.949370,0 37.708162,55.949433,0 37.708162,55.949483,0 37.708161,55.949532,0 37.708161,55.949582,0 37.708164,55.949666,0 37.708165,55.949723,0 37.708146,55.949786,0 37.708052,55.949813,0 37.707954,55.949836,0 37.707853,55.949856,0 37.707775,55.949872,0 37.707671,55.949895,0 37.707555,55.949917,0 37.707477,55.949929,0 37.707394,55.949939,0 37.707279,55.949950,0 37.707191,55.949959,0 37.707081,55.949968,0 37.706994,55.949976,0 37.706884,55.949981,0 37.706766,55.949979,0 37.706681,55.949985,0 37.706558,55.950000,0 37.706451,55.950010,0 37.706348,55.950016,0 37.706239,55.950021,0 37.706141,55.950022,0 37.706042,55.950014,0 37.705952,55.950006,0 37.705847,55.949997,0 37.705744,55.949992,0 37.705642,55.949999,0 37.705545,55.950016,0 37.705446,55.950032,0 37.705340,55.950043,0 37.705241,55.950048,0 37.705152,55.950054,0 37.705071,55.950058,0 37.704978,55.950058,0 37.704883,55.950055,0 37.704788,55.950051,0 37.704694,55.950052,0 37.704598,55.950056,0 37.704505,55.950058,0 37.704415,55.950053,0 37.704324,55.950042,0 37.704238,55.950032,0 37.704154,55.950019,0 37.704063,55.950011,0 37.703939,55.950013,0 37.703835,55.950009,0 37.703712,55.950002,0 37.703591,55.949997,0 37.703491,55.949996,0 37.703408,55.950001,0 37.703322,55.950010,0 37.703223,55.950021,0 37.703137,55.950028,0 37.703045,55.950029,0 37.702955,55.950025,0 37.702834,55.950011,0 37.702730,55.950001,0 37.702639,55.950008,0 37.702554,55.950017,0 37.702462,55.950023,0 37.702380,55.950025,0 37.702285,55.950025,0 37.702193,55.950024,0 37.702090,55.950020,0 37.701980,55.950017,0 37.701887,55.950017,0 37.701767,55.950016,0 37.701672,55.950016,0 37.701591,55.950015,0 37.701495,55.950015,0 37.701368,55.950017,0 37.701287,55.950018,0 37.701202,55.950019,0 37.701121,55.950018,0 37.700992,55.950014,0 37.700908,55.950011,0 37.700799,55.950007,0 37.700664,55.950005,0 37.700557,55.950009,0 37.700465,55.950016,0 37.700376,55.950021,0 37.700293,55.950032,0 37.700204,55.950075,0 37.700168,55.950136,0 37.700142,55.950201,0 37.700122,55.950260,0 37.700103,55.950311,0 37.700075,55.950380,0 37.700055,55.950427,0 37.700038,55.950474,0 37.700019,55.950529,0 37.700004,55.950576,0 37.699989,55.950628,0 37.699970,55.950695,0 37.699954,55.950758,0 37.699947,55.950822,0 37.699949,55.950872,0 37.699963,55.950933,0 37.699979,55.950996,0 37.699989,55.951041,0 37.700000,55.951093,0 37.700009,55.951145,0 37.700017,55.951204,0 37.700023,55.951261,0 37.700026,55.951317,0 37.700028,55.951382,0 37.700028,55.951443,0 37.700029,55.951498,0 37.700030,55.951548,0 37.700032,55.951606,0 37.700036,55.951661,0 37.700043,55.951713,0 37.700050,55.951765,0 37.700057,55.951826,0 37.700062,55.951876,0 37.700066,55.951923,0 37.700071,55.951972,0 37.700076,55.952048,0 37.700077,55.952093,0 37.700074,55.952162,0 37.700074,55.952209,0 37.700072,55.952277,0 37.700072,55.952339,0 37.700072,55.952392,0 37.700071,55.952438,0 37.700070,55.952493,0 37.700070,55.952541,0 37.700075,55.952598,0 37.700083,55.952647,0 37.700096,55.952706,0 37.700110,55.952767,0 37.700126,55.952833,0 37.700139,55.952894,0 37.700150,55.952958,0 37.700159,55.953017,0 37.700169,55.953080,0 37.700178,55.953138,0 37.700185,55.953193,0 37.700191,55.953254,0 37.700194,55.953301,0 37.700195,55.953347,0 37.700196,55.953392,0 37.700197,55.953442,0 37.700198,55.953508,0 37.700199,55.953571,0 37.700202,55.953623,0 37.700212,55.953687,0 37.700226,55.953735,0 37.700246,55.953794,0 37.700272,55.953867,0 37.700287,55.953932,0 37.700295,55.953995,0 37.700303,55.954044,0 37.700314,55.954107,0 37.700321,55.954162,0 37.700326,55.954208,0 37.700333,55.954275,0 37.700339,55.954334,0 37.700345,55.954389,0 37.700351,55.954445,0 37.700355,55.954495,0 37.700356,55.954544,0 37.700353,55.954609,0 37.700346,55.954664,0 37.700321,55.954739,0 37.700284,55.954788,0 37.700196,55.954809,0 37.700102,55.954824,0 37.699992,55.954832,0 37.699877,55.954837,0 37.699765,55.954840,0 37.699653,55.954844,0 37.699564,55.954848,0 37.699441,55.954853,0 37.699358,55.954856,0 37.699235,55.954859,0 37.699149,55.954860,0 37.699023,55.954861,0 37.698904,55.954864,0 37.698786,55.954873,0 37.698689,55.954888,0 37.698591,55.954906,0 37.698507,55.954920,0 37.698426,55.954927,0 37.698341,55.954932,0 37.698259,55.954932,0 37.698175,55.954926,0 37.698092,55.954918,0 37.698005,55.954909,0 37.697924,55.954901,0 37.697827,55.954890,0 37.697726,55.954880,0 37.697621,55.954874,0 37.697526,55.954872,0 37.697436,55.954871,0 37.697342,55.954872,0 37.697256,55.954879,0 37.697172,55.954882,0 37.697082,55.954875,0 37.696981,55.954878,0 37.696898,55.954888,0 37.696817,55.954903,0 37.696734,55.954915,0 37.696629,55.954930,0 37.696518,55.954941,0 37.696402,55.954943,0 37.696320,55.954944,0 37.696222,55.954945,0 37.696104,55.954947,0 37.696020,55.954945,0 37.695922,55.954942,0 37.695838,55.954937,0 37.695738,55.954932,0 37.695657,55.954929,0 37.695564,55.954929,0 37.695447,55.954929,0 37.695354,55.954930,0 37.695268,55.954932,0 37.695153,55.954936,0 37.695068,55.954939,0 37.694946,55.954942,0 37.694814,55.954942,0 37.694721,55.954935,0 37.694632,55.954921,0 37.694512,55.954907,0 37.694427,55.954901,0 37.694336,55.954892,0 37.694251,55.954889,0 37.694166,55.954891,0 37.694072,55.954897,0 37.693985,55.954906,0 37.693889,55.954915,0 37.693790,55.954924,0 37.693679,55.954929,0 37.693590,55.954932,0 37.693500,55.954951,0 37.693395,55.954966,0 37.693292,55.954983,0 37.693205,55.954999,0 37.693106,55.955008,0 37.693005,55.955008,0 37.692896,55.955000,0 37.692782,55.954988,0 37.692688,55.954979,0 37.692604,55.954969,0 37.692500,55.954958,0 37.692411,55.954947,0 37.692306,55.954936,0 37.692218,55.954927,0 37.692117,55.954918,0 37.692033,55.954912,0 37.691936,55.954910,0 37.691854,55.954910,0 37.691758,55.954911,0 37.691641,55.954916,0 37.691559,55.954920,0 37.691463,55.954923,0 37.691372,55.954926,0 37.691287,55.954930,0 37.691190,55.954935,0 37.691065,55.954941,0 37.690984,55.954944,0 37.690879,55.954949,0 37.690768,55.954951,0 37.690687,55.954946,0 37.690604,55.954939,0 37.690483,55.954916,0 37.690391,55.954900,0 37.690300,55.954893,0 37.690214,55.954899,0 37.690131,55.954911,0 37.690026,55.954931,0 37.689911,55.954931,0 37.689795,55.954909,0 37.689718,55.954880,0 37.689659,55.954848,0 37.689601,55.954811,0 37.689554,55.954770,0 37.689538,55.954720,0 37.689553,55.954671,0 37.689582,55.954624,0 37.689611,55.954560,0 37.689622,55.954507,0 37.689611,55.954454,0 37.689575,55.954396,0 37.689538,55.954335,0 37.689505,55.954278,0 37.689456,55.954223,0 37.689383,55.954164,0 37.689291,55.954096,0 37.689209,55.954064,0 37.689105,55.954033,0 37.689024,55.954010,0 37.688946,55.953988,0 37.688860,55.953969,0 37.688775,55.953951,0 37.688682,55.953931,0 37.688606,55.953912,0 37.688515,55.953891,0 37.688427,55.953871,0 37.688334,55.953854,0 37.688246,55.953840,0 37.688153,55.953830,0 37.688067,55.953826,0 37.687976,55.953829,0 37.687893,55.953838,0 37.687818,55.953856,0 37.687733,55.953882,0 37.687659,55.953911,0 37.687591,55.953940,0 37.687498,55.953979,0 37.687390,55.954018,0 37.687307,55.954081,0 37.687238,55.954121,0 37.687160,55.954151,0 37.687089,55.954179,0 37.687011,55.954210,0 37.686946,55.954247,0 37.686883,55.954294,0 37.686846,55.954344,0 37.686817,55.954406,0 37.686798,55.954464,0 37.686783,55.954526,0 37.686791,55.954580,0 37.686850,55.954617,0 37.686952,55.954631,0 37.687056,55.954634,0 37.687184,55.954638,0 37.687288,55.954639,0 37.687403,55.954631,0 37.687486,55.954625,0 37.687590,55.954613,0 37.687687,55.954600,0 37.687785,55.954584,0 37.687877,55.954565,0 37.687972,55.954543,0 37.688053,55.954523,0 37.688149,55.954498,0 37.688231,55.954476,0 37.688325,55.954451,0 37.688402,55.954429,0 37.688490,55.954404,0 37.688589,55.954375,0 37.688687,55.954334,0 37.688770,55.954286,0 37.688824,55.954237,0 37.688854,55.954183,0 37.688853,55.954133,0 37.688859,55.954086,0 37.688950,55.954060,0 37.689050,55.954080,0 37.689122,55.954107,0 37.689229,55.954160,0 37.689325,55.954206,0 37.689389,55.954248,0 37.689437,55.954300,0 37.689463,55.954346,0 37.689487,55.954399,0 37.689507,55.954446,0 37.689521,55.954493,0 37.689524,55.954543,0 37.689513,55.954590,0 37.689486,55.954636,0 37.689454,55.954680,0 37.689423,55.954726,0 37.689423,55.954770,0 37.689463,55.954812,0 37.689515,55.954851,0 37.689578,55.954889,0 37.689682,55.954921,0 37.689773,55.954935,0 37.689879,55.954948,0 37.689979,55.954963,0 37.690079,55.954970,0 37.690176,55.954969,0 37.690262,55.954966,0 37.690343,55.954969,0 37.690425,55.954973,0 37.690511,55.954976,0 37.690634,55.954985,0 37.690721,55.954991,0 37.690816,55.954995,0 37.690899,55.954994,0 37.690985,55.954993,0 37.691075,55.954993,0 37.691160,55.955000,0 37.691252,55.955012,0 37.691347,55.955019,0 37.691442,55.955019,0 37.691526,55.955022,0 37.691615,55.955027,0 37.691697,55.955033,0 37.691788,55.955038,0 37.691872,55.955039,0 37.691967,55.955044,0 37.692056,55.955046,0 37.692155,55.955051,0 37.692243,55.955060,0 37.692341,55.955071,0 37.692436,55.955073,0 37.692533,55.955065,0 37.692626,55.955056,0 37.692714,55.955051,0 37.692802,55.955048,0 37.692891,55.955043,0 37.692992,55.955036,0 37.693096,55.955028,0 37.693206,55.955019,0 37.693309,55.955014,0 37.693410,55.955010,0 37.693500,55.955009,0 37.693592,55.955005,0 37.693681,55.954997,0 37.693778,55.954988,0 37.693868,55.954978,0 37.693958,55.954970,0 37.694044,55.954965,0 37.694136,55.954969,0 37.694227,55.954980,0 37.694320,55.954990,0 37.694421,55.954998,0 37.694510,55.955006,0 37.694600,55.955014,0 37.694697,55.955020,0 37.694793,55.955025,0 37.694892,55.955038,0 37.694994,55.955048,0 37.695084,55.955047,0 37.695181,55.955041,0 37.695304,55.955037,0 37.695399,55.955029,0 37.695487,55.955025,0 37.695577,55.955032,0 37.695698,55.955046,0 37.695781,55.955056,0 37.695870,55.955070,0 37.695953,55.955078,0 37.696061,55.955072,0 37.696172,55.955056,0 37.696286,55.955030,0 37.696380,55.955008,0 37.696481,55.954992,0 37.696566,55.954983,0 37.696662,55.954979,0 37.696757,55.954974,0 37.696864,55.954970,0 37.696956,55.954967,0 37.697055,55.954964,0 37.697142,55.954971,0 37.697227,55.954983,0 37.697314,55.954991,0 37.697416,55.955000,0 37.697516,55.955014,0 37.697625,55.955029,0 37.697714,55.955046,0 37.697805,55.955061,0 37.697889,55.955067,0 37.697977,55.955075,0 37.698058,55.955086,0 37.698152,55.955105,0 37.698243,55.955119,0 37.698352,55.955121,0 37.698460,55.955114,0 37.698580,55.955111,0 37.698682,55.955110,0 37.698817,55.955093,0 37.698900,55.955089,0 37.698995,55.955084,0 37.699078,55.955078,0 37.699158,55.955070,0 37.699284,55.955059,0 37.699376,55.955053,0 37.699461,55.955050,0 37.699551,55.955050,0 37.699649,55.955050,0 37.699732,55.955052,0 37.699831,55.955054,0 37.699914,55.955058,0 37.700030,55.955067,0 37.700112,55.955073,0 37.700195,55.955077,0 37.700308,55.955075,0 37.700404,55.955043,0 37.700452,55.954988,0 37.700481,55.954925,0 37.700500,55.954864,0 37.700517,55.954795,0 37.700523,55.954721,0 37.700522,55.954642,0 37.700522,55.954575,0 37.700523,55.954514,0 37.700526,55.954465,0 37.700537,55.954409,0 37.700554,55.954354,0 37.700569,55.954298,0 37.700576,55.954243,0 37.700573,55.954187,0 37.700566,55.954128,0 37.700558,55.954067,0 37.700549,55.954013,0 37.700528,55.953947,0 37.700511,55.953895,0 37.700502,55.953846,0 37.700493,55.953801,0 37.700486,55.953753,0 37.700480,55.953685,0 37.700479,55.953634,0 37.700478,55.953578,0 37.700479,55.953531,0 37.700478,55.953481,0 37.700476,55.953426,0 37.700476,55.953377,0 37.700476,55.953329,0 37.700476,55.953282,0 37.700474,55.953224,0 37.700472,55.953176,0 37.700471,55.953128,0 37.700468,55.953076,0 37.700465,55.953022,0 37.700460,55.952977,0 37.700451,55.952928,0 37.700441,55.952874,0 37.700430,55.952822,0 37.700421,55.952767,0 37.700413,55.952714,0 37.700405,55.952660,0 37.700397,55.952608,0 37.700388,55.952555,0 37.700380,55.952504,0 37.700372,55.952450,0 37.700365,55.952399,0 37.700358,55.952346,0 37.700353,55.952295,0 37.700348,55.952243,0 37.700342,55.952174,0 37.700339,55.952126,0 37.700339,55.952062,0 37.700346,55.951998,0 37.700338,55.951936,0 37.700328,55.951883,0 37.700317,55.951826,0 37.700309,55.951779,0 37.700306,55.951727,0 37.700304,55.951679,0 37.700294,55.951629,0 37.700283,55.951560,0 37.700281,55.951509,0 37.700280,55.951460,0 37.700276,55.951413,0 37.700270,55.951347,0 37.700260,55.951297,0 37.700250,55.951243,0 37.700246,55.951191,0 37.700241,55.951146,0 37.700237,55.951100,0 37.700223,55.951032,0 37.700218,55.950967,0 37.700219,55.950920,0 37.700235,55.950868,0 37.700259,55.950813,0 37.700272,55.950761,0 37.700269,55.950709,0 37.700260,55.950657,0 37.700254,55.950604,0 37.700248,55.950552,0 37.700237,55.950503,0 37.700212,55.950437,0 37.700195,55.950387,0 37.700195,55.950331,0 37.700215,55.950278,0 37.700241,55.950225,0 37.700268,55.950173,0 37.700287,55.950125,0 37.700304,55.950075,0 37.700389,55.950067,0 37.700485,55.950073,0 37.700598,55.950083,0 37.700688,55.950091,0 37.700811,55.950102,0 37.700902,55.950109,0 37.700988,55.950114,0 37.701080,55.950119,0 37.701166,55.950123,0 37.701260,55.950128,0 37.701348,55.950132,0 37.701440,55.950135,0 37.701539,55.950138,0 37.701622,55.950139,0 37.701720,55.950140,0 37.701803,55.950139,0 37.701902,55.950139,0 37.701996,55.950141,0 37.702096,55.950142,0 37.702183,55.950143,0 37.702288,55.950145,0 37.702374,55.950145,0 37.702489,55.950148,0 37.702581,55.950150,0 37.702690,55.950152,0 37.702822,55.950154,0 37.702969,55.950146,0 37.703062,55.950138,0 37.703179,55.950125,0 37.703267,55.950114,0 37.703379,55.950097,0 37.703493,55.950083,0 37.703578,55.950074,0 37.703660,55.950069,0 37.703749,55.950066,0 37.703836,55.950065,0 37.703928,55.950066,0 37.704017,55.950067,0 37.704109,55.950068,0 37.704208,55.950069,0 37.704325,55.950069,0 37.704415,55.950070,0 37.704534,55.950073,0 37.704620,55.950076,0 37.704700,55.950081,0 37.704787,55.950086,0 37.704904,55.950092,0 37.705033,55.950098,0 37.705142,55.950108,0 37.705223,55.950111,0 37.705335,55.950107,0 37.705419,55.950108,0 37.705501,55.950103,0 37.705607,55.950085,0 37.705714,55.950073,0 37.705804,55.950073,0 37.705885,55.950076,0 37.705970,55.950083,0 37.706065,55.950091,0 37.706168,55.950101,0 37.706267,55.950110,0 37.706370,55.950119,0 37.706476,55.950126,0 37.706567,55.950132,0 37.706662,55.950141,0 37.706765,55.950151,0 37.706858,55.950161,0 37.706949,55.950169,0 37.707046,55.950175,0 37.707146,55.950177,0 37.707231,55.950174,0 37.707331,55.950168,0 37.707425,55.950160,0 37.707521,55.950154,0 37.707612,55.950150,0 37.707708,55.950147,0 37.707788,55.950144,0 37.707882,55.950142,0 37.708017,55.950142,0 37.708132,55.950138,0 37.708223,55.950117,0 37.708291,55.950076,0 37.708336,55.950023,0 37.708363,55.949963,0 37.708381,55.949905,0 37.708390,55.949847,0 37.708400,55.949798,0 37.708416,55.949745,0 37.708435,55.949696,0 37.708463,55.949638,0 37.708487,55.949587,0 37.708505,55.949532,0 37.708522,55.949481,0 37.708532,55.949424,0 37.708529,55.949373,0 37.708517,55.949317,0 37.708503,55.949263,0 37.708491,55.949204,0 37.708481,55.949147,0 37.708468,55.949086,0 37.708454,55.949026,0 37.708451,55.948945,0 37.708454,55.948897,0 37.708458,55.948850,0 37.708463,55.948800,0 37.708469,55.948745,0 37.708475,55.948698,0 37.708482,55.948640,0 37.708489,55.948590,0 37.708492,55.948538,0 37.708492,55.948481,0 37.708492,55.948420,0 37.708489,55.948367,0 37.708486,55.948306,0 37.708483,55.948255,0 37.708481,55.948196,0 37.708480,55.948147,0 37.708480,55.948090,0 37.708482,55.948041,0 37.708483,55.947992,0 37.708484,55.947942,0 37.708485,55.947891,0 37.708489,55.947843,0 37.708487,55.947762,0 37.708476,55.947704,0 37.708464,55.947642,0 37.708456,55.947595,0 37.708448,55.947542,0 37.708438,55.947471,0 37.708431,55.947420,0 37.708426,55.947371,0 37.708422,55.947318,0 37.708420,55.947267,0 37.708420,55.947213,0 37.708422,55.947166,0 37.708423,55.947120,0 37.708426,55.947048,0 37.708426,55.946997,0 37.708425,55.946943,0 37.708424,55.946897,0 37.708422,55.946842,0 37.708420,55.946794,0 37.708417,55.946739,0 37.708414,55.946692,0 37.708410,55.946637,0 37.708407,55.946590,0 37.708403,55.946545,0 37.708394,55.946491,0 37.708371,55.946409,0 37.708362,55.946346,0 37.708359,55.946276,0 37.708361,55.946212,0 37.708363,55.946164,0 37.708366,55.946107,0 37.708367,55.946053,0 37.708367,55.946007,0 37.708362,55.945959,0 37.708356,55.945908,0 37.708351,55.945854,0 37.708349,55.945808,0 37.708347,55.945753,0 37.708345,55.945706,0 37.708343,55.945659,0 37.708342,55.945611,0 37.708341,55.945557,0 37.708342,55.945499,0 37.708342,55.945443,0 37.708342,55.945384,0 37.708341,55.945328,0 37.708341,55.945269,0 37.708344,55.945217,0 37.708349,55.945155,0 37.708355,55.945102,0 37.708360,55.945047,0 37.708363,55.944990,0 37.708366,55.944930,0 37.708367,55.944878,0 37.708368,55.944824,0 37.708365,55.944767,0 37.708361,55.944707,0 37.708357,55.944657,0 37.708350,55.944606,0 37.708342,55.944553,0 37.708335,55.944506,0 37.708328,55.944449,0 37.708323,55.944398,0 37.708318,55.944348,0 37.708312,55.944283,0 37.708306,55.944211,0 37.708296,55.944127,0 37.708293,55.944069,0 37.708293,55.944020,0 37.708292,55.943973,0 37.708289,55.943925,0 37.708282,55.943863,0 37.708278,55.943812,0 37.708274,55.943759,0 37.708273,55.943695,0 37.708274,55.943641,0 37.708277,55.943595,0 37.708282,55.943548,0 37.708287,55.943499,0 37.708292,55.943448,0 37.708299,55.943401,0 37.708318,55.943333,0 37.708328,55.943275,0 37.708323,55.943218,0 37.708318,55.943135,0 37.708322,55.943074,0 37.708317,55.943029,0 37.708303,55.942984,0 37.708272,55.942924,0 37.708230,55.942874,0 37.708232,55.942806,0 37.708236,55.942748,0 37.708241,55.942699,0 37.708247,55.942645,0 37.708256,55.942584,0 37.708264,55.942528,0 37.708271,55.942473,0 37.708277,55.942419,0 37.708283,55.942355,0 37.708287,55.942299,0 37.708294,55.942236,0 37.708302,55.942183,0 37.708312,55.942122,0 37.708321,55.942071,0 37.708329,55.942013,0 37.708334,55.941966,0 37.708335,55.941912,0 37.708333,55.941866,0 37.708327,55.941811,0 37.708318,55.941766,0 37.708303,55.941703,0 37.708292,55.941635,0 37.708285,55.941578,0 37.708291,55.941518,0 37.708291,55.941456,0 37.708288,55.941399,0 37.708290,55.941341,0 37.708290,55.941291,0 37.708286,55.941244,0 37.708283,55.941199,0 37.708271,55.941151,0 37.708250,55.941085,0 37.708240,55.941018,0 37.708245,55.940967,0 37.708258,55.940911,0 37.708268,55.940854,0 37.708263,55.940801,0 37.708258,55.940745,0 37.708254,55.940691,0 37.708254,55.940635,0 37.708254,55.940585,0 37.708257,55.940529,0 37.708263,55.940475,0 37.708259,55.940412,0 37.708257,55.940351,0 37.708263,55.940286,0 37.708279,55.940230,0 37.708278,55.940162,0 37.708276,55.940112,0 37.708274,55.940055,0 37.708267,55.940001,0 37.708262,55.939946,0 37.708258,55.939893,0 37.708251,55.939841,0 37.708242,55.939793,0 37.708230,55.939743,0 37.708227,55.939689,0 37.708225,55.939641,0 37.708218,55.939593,0 37.708219,55.939536,0 37.708229,55.939483,0 37.708239,55.939423,0 37.708235,55.939369,0 37.708223,55.939310,0 37.708213,55.939258,0 37.708203,55.939200,0 37.708191,55.939152,0 37.708189,55.939099,0 37.708191,55.939054,0 37.708186,55.939006,0 37.708168,55.938943,0 37.708144,55.938880,0 37.708133,55.938830,0 37.708120,55.938779,0 37.708109,55.938726,0 37.708109,55.938670,0 37.708117,55.938621,0 37.708128,55.938574,0 37.708133,55.938526,0 37.708138,55.938475,0 37.708146,55.938424,0 37.708151,55.938370,0 37.708144,55.938319,0 37.708127,55.938265,0 37.708113,55.938219,0 37.708100,55.938172,0 37.708094,55.938105,0 37.708093,55.938054,0 37.708098,55.937996,0 37.708110,55.937938,0 37.708120,55.937885,0 37.708118,55.937834,0 37.708107,55.937787,0 37.708085,55.937724,0 37.708077,55.937656,0 37.708087,55.937605,0 37.708096,55.937549,0 37.708100,55.937497,0 37.708103,55.937446,0 37.708106,55.937397,0 37.708109,55.937342,0 37.708113,55.937284,0 37.708119,55.937224,0 37.708125,55.937173,0 37.708129,55.937124,0 37.708134,55.937063,0 37.708133,55.936999,0 37.708136,55.936950,0 37.708136,55.936903,0 37.708133,55.936846,0 37.708139,55.936795,0 37.708148,55.936737,0 37.708159,55.936677,0 37.708170,55.936615,0 37.708173,55.936558,0 37.708173,55.936496,0 37.708163,55.936444,0 37.708152,55.936396,0 37.708145,55.936348,0 37.708127,55.936298,0 37.708114,55.936251,0 37.708102,55.936203,0 37.708094,55.936152,0 37.708091,55.936101,0 37.708097,55.936046,0 37.708111,55.935990,0 37.708127,55.935935,0 37.708136,55.935884,0 37.708138,55.935832,0 37.708136,55.935777,0 37.708134,55.935727,0 37.708129,55.935674,0 37.708117,55.935616,0 37.708111,55.935561,0 37.708106,55.935514,0 37.708091,55.935467,0 37.708084,55.935399,0 37.708095,55.935340,0 37.708107,55.935285,0 37.708114,55.935229,0 37.708111,55.935181,0 37.708109,55.935133,0 37.708109,55.935088,0 37.708108,55.935033,0 37.708108,55.934967,0 37.708109,55.934922,0 37.708108,55.934855,0 37.708110,55.934809,0 37.708115,55.934761,0 37.708111,55.934714,0 37.708096,55.934661,0 37.708079,55.934606,0 37.708066,55.934553,0 37.708053,55.934505,0 37.708037,55.934457,0 37.708019,55.934407,0 37.708006,55.934360,0 37.707997,55.934311,0 37.707988,55.934265,0 37.707981,55.934215,0 37.707978,55.934162,0 37.707984,55.934103,0 37.707994,55.934043,0 37.708003,55.933983,0 37.708004,55.933929,0 37.708006,55.933872,0 37.708010,55.933816,0 37.708002,55.933763,0 37.707987,55.933711,0 37.707973,55.933659,0 37.707971,55.933609,0 37.707985,55.933556,0 37.708010,55.933501,0 37.708038,55.933452,0 37.708066,55.933404,0 37.708088,55.933352,0 37.708101,55.933305,0 37.708105,55.933236,0 37.708092,55.933181,0 37.708080,55.933128,0 37.708066,55.933070,0 37.708059,55.933020,0 37.708057,55.932968,0 37.708034,55.932902,0 37.708006,55.932859,0 37.707977,55.932801,0 37.707957,55.932732,0 37.707959,55.932675,0 37.707970,55.932613,0 37.707981,55.932541,0 37.707991,55.932475,0 37.708004,55.932410,0 37.708013,55.932355,0 37.708020,55.932304,0 37.708025,55.932254,0 37.708026,55.932205,0 37.708026,55.932146,0 37.708024,55.932096,0 37.708024,55.932035,0 37.708026,55.931982,0 37.708027,55.931921,0 37.708026,55.931866,0 37.708023,55.931800,0 37.708018,55.931741,0 37.708012,55.931686,0 37.708005,55.931632,0 37.707996,55.931569,0 37.707987,55.931518,0 37.707981,55.931459,0 37.707981,55.931406,0 37.707986,55.931354,0 37.707998,55.931285,0 37.708006,55.931236,0 37.708013,55.931173,0 37.708015,55.931128,0 37.708017,55.931079,0 37.708023,55.931011,0 37.708028,55.930960,0 37.708035,55.930906,0 37.708047,55.930836,0 37.708054,55.930787,0 37.708060,55.930726,0 37.708061,55.930664,0 37.708061,55.930617,0 37.708057,55.930547,0 37.708051,55.930499,0 37.708041,55.930447,0 37.708031,55.930401,0 37.708020,55.930341,0 37.708013,55.930284,0 37.708008,55.930227,0 37.708004,55.930167,0 37.708000,55.930104,0 37.707995,55.930046,0 37.707989,55.929988,0 37.707983,55.929928,0 37.707980,55.929878,0 37.707978,55.929821,0 37.707978,55.929773,0 37.707981,55.929723,0 37.707984,55.929669,0 37.707986,55.929612,0 37.707984,55.929565,0 37.707980,55.929509,0 37.707976,55.929463,0 37.707973,55.929398,0 37.707969,55.929352,0 37.707963,55.929301,0 37.707958,55.929254,0 37.707953,55.929202,0 37.707952,55.929145,0 37.707955,55.929095,0 37.707959,55.929036,0 37.707964,55.928986,0 37.707969,55.928928,0 37.707972,55.928882,0 37.707970,55.928820,0 37.707941,55.928737,0 37.707920,55.928672,0 37.707914,55.928626,0 37.707910,55.928578,0 37.707909,55.928533,0 37.707912,55.928484,0 37.707924,55.928414,0 37.707937,55.928360,0 37.707955,55.928279,0 37.707969,55.928221,0 37.707978,55.928161,0 37.707983,55.928108,0 37.707984,55.928054,0 37.707982,55.928009,0 37.707978,55.927953,0 37.707974,55.927904,0 37.707970,55.927845,0 37.707967,55.927793,0 37.707965,55.927733,0 37.707964,55.927681,0 37.707965,55.927620,0 37.707965,55.927564,0 37.707967,55.927507,0 37.707970,55.927452,0 37.707973,55.927396,0 37.707977,55.927347,0 37.707979,55.927287,0 37.707979,55.927231,0 37.707977,55.927173,0 37.707972,55.927118,0 37.707963,55.927061,0 37.707952,55.927012,0 37.707942,55.926963,0 37.707931,55.926904,0 37.707921,55.926855,0 37.707911,55.926800,0 37.707904,55.926754,0 37.707895,55.926701,0 37.707888,55.926656,0 37.707879,55.926601,0 37.707871,55.926550,0 37.707862,55.926499,0 37.707852,55.926441,0 37.707843,55.926378,0 37.707837,55.926321,0 37.707832,55.926256,0 37.707830,55.926194,0 37.707833,55.926132,0 37.707837,55.926074,0 37.707842,55.926015,0 37.707846,55.925959,0 37.707848,55.925903,0 37.707846,55.925843,0 37.707841,55.925794,0 37.707833,55.925738,0 37.707826,55.925693,0 37.707817,55.925641,0 37.707805,55.925575,0 37.707795,55.925528,0 37.707781,55.925458,0 37.707772,55.925412,0 37.707757,55.925342,0 37.707741,55.925260,0 37.707737,55.925201,0 37.707738,55.925149,0 37.707739,55.925100,0 37.707741,55.925048,0 37.707744,55.924998,0 37.707748,55.924945,0 37.707753,55.924896,0 37.707759,55.924845,0 37.707763,55.924799,0 37.707768,55.924750,0 37.707771,55.924704,0 37.707773,55.924654,0 37.707775,55.924600,0 37.707775,55.924530,0 37.707776,55.924481,0 37.707780,55.924411,0 37.707785,55.924338,0 37.707791,55.924277,0 37.707791,55.924217,0 37.707785,55.924163,0 37.707782,55.924107,0 37.707781,55.924054,0 37.707785,55.923990,0 37.707794,55.923934,0 37.707782,55.923877,0 37.707763,55.923822,0 37.707756,55.923763,0 37.707760,55.923710,0 37.707761,55.923659,0 37.707765,55.923612,0 37.707760,55.923549,0 37.707744,55.923504,0 37.707721,55.923436,0 37.707704,55.923385,0 37.707685,55.923330,0 37.707657,55.923275,0 37.707615,55.923222,0 37.707565,55.923174,0 37.707504,55.923126,0 37.707446,55.923085,0 37.707390,55.923039,0 37.707337,55.922995,0 37.707326,55.922986,0</coordinates></LineString></Placemark>
</Document></kml>
