<?xml version="1.0" encoding="UTF-8"?>
<gpx version="1.1" creator="бег#заЧанку" xmlns="http://www.topografix.com/GPX/1/1">
<metadata><name>бег#заЧанку — 9,6 км туда-обратно</name></metadata>
<trk><name>бег#заЧанку</name><trkseg>
<trkpt lat="55.922850" lon="37.707194"/>
<trkpt lat="55.922941" lon="37.707266"/>
<trkpt lat="55.923044" lon="37.707375"/>
<trkpt lat="55.923148" lon="37.707487"/>
<trkpt lat="55.923257" lon="37.707529"/>
<trkpt lat="55.923362" lon="37.707543"/>
<trkpt lat="55.923472" lon="37.707553"/>
<trkpt lat="55.923570" lon="37.707568"/>
<trkpt lat="55.923676" lon="37.707588"/>
<trkpt lat="55.923782" lon="37.707608"/>
<trkpt lat="55.923880" lon="37.707624"/>
<trkpt lat="55.923981" lon="37.707637"/>
<trkpt lat="55.924077" lon="37.707646"/>
<trkpt lat="55.924193" lon="37.707640"/>
<trkpt lat="55.924292" lon="37.707631"/>
<trkpt lat="55.924404" lon="37.707638"/>
<trkpt lat="55.924499" lon="37.707630"/>
<trkpt lat="55.924611" lon="37.707608"/>
<trkpt lat="55.924712" lon="37.707577"/>
<trkpt lat="55.924818" lon="37.707580"/>
<trkpt lat="55.924914" lon="37.707593"/>
<trkpt lat="55.925010" lon="37.707603"/>
<trkpt lat="55.925108" lon="37.707615"/>
<trkpt lat="55.925206" lon="37.707634"/>
<trkpt lat="55.925320" lon="37.707662"/>
<trkpt lat="55.925422" lon="37.707665"/>
<trkpt lat="55.925522" lon="37.707661"/>
<trkpt lat="55.925631" lon="37.707654"/>
<trkpt lat="55.925726" lon="37.707650"/>
<trkpt lat="55.925829" lon="37.707650"/>
<trkpt lat="55.925941" lon="37.707644"/>
<trkpt lat="55.926048" lon="37.707645"/>
<trkpt lat="55.926165" lon="37.707618"/>
<trkpt lat="55.926268" lon="37.707589"/>
<trkpt lat="55.926362" lon="37.707588"/>
<trkpt lat="55.926456" lon="37.707602"/>
<trkpt lat="55.926564" lon="37.707592"/>
<trkpt lat="55.926677" lon="37.707604"/>
<trkpt lat="55.926767" lon="37.707628"/>
<trkpt lat="55.926879" lon="37.707653"/>
<trkpt lat="55.926973" lon="37.707656"/>
<trkpt lat="55.927068" lon="37.707660"/>
<trkpt lat="55.927170" lon="37.707664"/>
<trkpt lat="55.927284" lon="37.707678"/>
<trkpt lat="55.927390" lon="37.707676"/>
<trkpt lat="55.927492" lon="37.707677"/>
<trkpt lat="55.927590" lon="37.707691"/>
<trkpt lat="55.927683" lon="37.707699"/>
<trkpt lat="55.927781" lon="37.707731"/>
<trkpt lat="55.927889" lon="37.707734"/>
<trkpt lat="55.927992" lon="37.707724"/>
<trkpt lat="55.928106" lon="37.707703"/>
<trkpt lat="55.928201" lon="37.707672"/>
<trkpt lat="55.928312" lon="37.707666"/>
<trkpt lat="55.928404" lon="37.707644"/>
<trkpt lat="55.928504" lon="37.707683"/>
<trkpt lat="55.928596" lon="37.707719"/>
<trkpt lat="55.928697" lon="37.707737"/>
<trkpt lat="55.928807" lon="37.707725"/>
<trkpt lat="55.928918" lon="37.707712"/>
<trkpt lat="55.929026" lon="37.707701"/>
<trkpt lat="55.929134" lon="37.707721"/>
<trkpt lat="55.929225" lon="37.707751"/>
<trkpt lat="55.929340" lon="37.707763"/>
<trkpt lat="55.929433" lon="37.707758"/>
<trkpt lat="55.929525" lon="37.707747"/>
<trkpt lat="55.929630" lon="37.707738"/>
<trkpt lat="55.929726" lon="37.707737"/>
<trkpt lat="55.929819" lon="37.707729"/>
<trkpt lat="55.929911" lon="37.707716"/>
<trkpt lat="55.930016" lon="37.707706"/>
<trkpt lat="55.930113" lon="37.707697"/>
<trkpt lat="55.930214" lon="37.707696"/>
<trkpt lat="55.930329" lon="37.707707"/>
<trkpt lat="55.930433" lon="37.707708"/>
<trkpt lat="55.930538" lon="37.707690"/>
<trkpt lat="55.930640" lon="37.707708"/>
<trkpt lat="55.930750" lon="37.707701"/>
<trkpt lat="55.930860" lon="37.707702"/>
<trkpt lat="55.930961" lon="37.707711"/>
<trkpt lat="55.931058" lon="37.707723"/>
<trkpt lat="55.931148" lon="37.707749"/>
<trkpt lat="55.931263" lon="37.707746"/>
<trkpt lat="55.931377" lon="37.707745"/>
<trkpt lat="55.931477" lon="37.707758"/>
<trkpt lat="55.931567" lon="37.707769"/>
<trkpt lat="55.931666" lon="37.707798"/>
<trkpt lat="55.931761" lon="37.707824"/>
<trkpt lat="55.931868" lon="37.707806"/>
<trkpt lat="55.931977" lon="37.707787"/>
<trkpt lat="55.932075" lon="37.707754"/>
<trkpt lat="55.932188" lon="37.707721"/>
<trkpt lat="55.932285" lon="37.707713"/>
<trkpt lat="55.932377" lon="37.707728"/>
<trkpt lat="55.932471" lon="37.707718"/>
<trkpt lat="55.932569" lon="37.707733"/>
<trkpt lat="55.932671" lon="37.707770"/>
<trkpt lat="55.932782" lon="37.707782"/>
<trkpt lat="55.932887" lon="37.707785"/>
<trkpt lat="55.932983" lon="37.707796"/>
<trkpt lat="55.933072" lon="37.707816"/>
<trkpt lat="55.933189" lon="37.707840"/>
<trkpt lat="55.933281" lon="37.707840"/>
<trkpt lat="55.933380" lon="37.707843"/>
<trkpt lat="55.933489" lon="37.707841"/>
<trkpt lat="55.933578" lon="37.707812"/>
<trkpt lat="55.933672" lon="37.707813"/>
<trkpt lat="55.933764" lon="37.707834"/>
<trkpt lat="55.933870" lon="37.707843"/>
<trkpt lat="55.933976" lon="37.707836"/>
<trkpt lat="55.934093" lon="37.707817"/>
<trkpt lat="55.934196" lon="37.707815"/>
<trkpt lat="55.934288" lon="37.707819"/>
<trkpt lat="55.934390" lon="37.707830"/>
<trkpt lat="55.934496" lon="37.707837"/>
<trkpt lat="55.934593" lon="37.707834"/>
<trkpt lat="55.934684" lon="37.707819"/>
<trkpt lat="55.934784" lon="37.707785"/>
<trkpt lat="55.934878" lon="37.707761"/>
<trkpt lat="55.935004" lon="37.707758"/>
<trkpt lat="55.935106" lon="37.707781"/>
<trkpt lat="55.935194" lon="37.707820"/>
<trkpt lat="55.935306" lon="37.707804"/>
<trkpt lat="55.935413" lon="37.707803"/>
<trkpt lat="55.935518" lon="37.707819"/>
<trkpt lat="55.935626" lon="37.707842"/>
<trkpt lat="55.935718" lon="37.707852"/>
<trkpt lat="55.935812" lon="37.707855"/>
<trkpt lat="55.935902" lon="37.707851"/>
<trkpt lat="55.936015" lon="37.707849"/>
<trkpt lat="55.936123" lon="37.707860"/>
<trkpt lat="55.936218" lon="37.707865"/>
<trkpt lat="55.936329" lon="37.707866"/>
<trkpt lat="55.936441" lon="37.707872"/>
<trkpt lat="55.936547" lon="37.707879"/>
<trkpt lat="55.936660" lon="37.707892"/>
<trkpt lat="55.936771" lon="37.707906"/>
<trkpt lat="55.936864" lon="37.707908"/>
<trkpt lat="55.936965" lon="37.707908"/>
<trkpt lat="55.937068" lon="37.707922"/>
<trkpt lat="55.937186" lon="37.707938"/>
<trkpt lat="55.937300" lon="37.707955"/>
<trkpt lat="55.937390" lon="37.707961"/>
<trkpt lat="55.937484" lon="37.707960"/>
<trkpt lat="55.937595" lon="37.707956"/>
<trkpt lat="55.937695" lon="37.707953"/>
<trkpt lat="55.937796" lon="37.707950"/>
<trkpt lat="55.937908" lon="37.707953"/>
<trkpt lat="55.938016" lon="37.707965"/>
<trkpt lat="55.938130" lon="37.707980"/>
<trkpt lat="55.938247" lon="37.707953"/>
<trkpt lat="55.938340" lon="37.707923"/>
<trkpt lat="55.938431" lon="37.707902"/>
<trkpt lat="55.938529" lon="37.707914"/>
<trkpt lat="55.938624" lon="37.707955"/>
<trkpt lat="55.938730" lon="37.707974"/>
<trkpt lat="55.938843" lon="37.707985"/>
<trkpt lat="55.938951" lon="37.707997"/>
<trkpt lat="55.939051" lon="37.708007"/>
<trkpt lat="55.939146" lon="37.708010"/>
<trkpt lat="55.939258" lon="37.708004"/>
<trkpt lat="55.939370" lon="37.708001"/>
<trkpt lat="55.939480" lon="37.707998"/>
<trkpt lat="55.939594" lon="37.707970"/>
<trkpt lat="55.939705" lon="37.707948"/>
<trkpt lat="55.939802" lon="37.707949"/>
<trkpt lat="55.939919" lon="37.707960"/>
<trkpt lat="55.940024" lon="37.707959"/>
<trkpt lat="55.940123" lon="37.707931"/>
<trkpt lat="55.940228" lon="37.707967"/>
<trkpt lat="55.940318" lon="37.708006"/>
<trkpt lat="55.940424" lon="37.708045"/>
<trkpt lat="55.940520" lon="37.708048"/>
<trkpt lat="55.940621" lon="37.708065"/>
<trkpt lat="55.940717" lon="37.708024"/>
<trkpt lat="55.940826" lon="37.707993"/>
<trkpt lat="55.940930" lon="37.707992"/>
<trkpt lat="55.941033" lon="37.707987"/>
<trkpt lat="55.941129" lon="37.707999"/>
<trkpt lat="55.941232" lon="37.708029"/>
<trkpt lat="55.941326" lon="37.708044"/>
<trkpt lat="55.941418" lon="37.708041"/>
<trkpt lat="55.941525" lon="37.708041"/>
<trkpt lat="55.941626" lon="37.708034"/>
<trkpt lat="55.941738" lon="37.708043"/>
<trkpt lat="55.941845" lon="37.708018"/>
<trkpt lat="55.941944" lon="37.708009"/>
<trkpt lat="55.942050" lon="37.708008"/>
<trkpt lat="55.942156" lon="37.708011"/>
<trkpt lat="55.942262" lon="37.708016"/>
<trkpt lat="55.942373" lon="37.708020"/>
<trkpt lat="55.942477" lon="37.708015"/>
<trkpt lat="55.942569" lon="37.708003"/>
<trkpt lat="55.942673" lon="37.707988"/>
<trkpt lat="55.942779" lon="37.708002"/>
<trkpt lat="55.942876" lon="37.708032"/>
<trkpt lat="55.942982" lon="37.708053"/>
<trkpt lat="55.943072" lon="37.708044"/>
<trkpt lat="55.943170" lon="37.708029"/>
<trkpt lat="55.943282" lon="37.708053"/>
<trkpt lat="55.943402" lon="37.708050"/>
<trkpt lat="55.943518" lon="37.708023"/>
<trkpt lat="55.943625" lon="37.708006"/>
<trkpt lat="55.943720" lon="37.707975"/>
<trkpt lat="55.943818" lon="37.708001"/>
<trkpt lat="55.943927" lon="37.708046"/>
<trkpt lat="55.944036" lon="37.708082"/>
<trkpt lat="55.944135" lon="37.708109"/>
<trkpt lat="55.944238" lon="37.708112"/>
<trkpt lat="55.944353" lon="37.708096"/>
<trkpt lat="55.944460" lon="37.708109"/>
<trkpt lat="55.944554" lon="37.708133"/>
<trkpt lat="55.944651" lon="37.708138"/>
<trkpt lat="55.944763" lon="37.708141"/>
<trkpt lat="55.944869" lon="37.708141"/>
<trkpt lat="55.944971" lon="37.708133"/>
<trkpt lat="55.945063" lon="37.708137"/>
<trkpt lat="55.945158" lon="37.708134"/>
<trkpt lat="55.945266" lon="37.708118"/>
<trkpt lat="55.945360" lon="37.708092"/>
<trkpt lat="55.945462" lon="37.708106"/>
<trkpt lat="55.945566" lon="37.708125"/>
<trkpt lat="55.945659" lon="37.708138"/>
<trkpt lat="55.945752" lon="37.708157"/>
<trkpt lat="55.945870" lon="37.708177"/>
<trkpt lat="55.945983" lon="37.708183"/>
<trkpt lat="55.946096" lon="37.708194"/>
<trkpt lat="55.946200" lon="37.708199"/>
<trkpt lat="55.946309" lon="37.708186"/>
<trkpt lat="55.946421" lon="37.708137"/>
<trkpt lat="55.946525" lon="37.708124"/>
<trkpt lat="55.946618" lon="37.708144"/>
<trkpt lat="55.946712" lon="37.708155"/>
<trkpt lat="55.946809" lon="37.708152"/>
<trkpt lat="55.946912" lon="37.708150"/>
<trkpt lat="55.947024" lon="37.708145"/>
<trkpt lat="55.947141" lon="37.708136"/>
<trkpt lat="55.947256" lon="37.708135"/>
<trkpt lat="55.947358" lon="37.708130"/>
<trkpt lat="55.947466" lon="37.708157"/>
<trkpt lat="55.947560" lon="37.708178"/>
<trkpt lat="55.947672" lon="37.708221"/>
<trkpt lat="55.947784" lon="37.708229"/>
<trkpt lat="55.947881" lon="37.708217"/>
<trkpt lat="55.947978" lon="37.708191"/>
<trkpt lat="55.948089" lon="37.708176"/>
<trkpt lat="55.948191" lon="37.708189"/>
<trkpt lat="55.948296" lon="37.708209"/>
<trkpt lat="55.948408" lon="37.708199"/>
<trkpt lat="55.948501" lon="37.708179"/>
<trkpt lat="55.948599" lon="37.708166"/>
<trkpt lat="55.948704" lon="37.708176"/>
<trkpt lat="55.948812" lon="37.708201"/>
<trkpt lat="55.948912" lon="37.708239"/>
<trkpt lat="55.949003" lon="37.708231"/>
<trkpt lat="55.949099" lon="37.708185"/>
<trkpt lat="55.949207" lon="37.708194"/>
<trkpt lat="55.949311" lon="37.708212"/>
<trkpt lat="55.949407" lon="37.708208"/>
<trkpt lat="55.949517" lon="37.708206"/>
<trkpt lat="55.949609" lon="37.708225"/>
<trkpt lat="55.949715" lon="37.708234"/>
<trkpt lat="55.949816" lon="37.708223"/>
<trkpt lat="55.949894" lon="37.708143"/>
<trkpt lat="55.949930" lon="37.707958"/>
<trkpt lat="55.949950" lon="37.707759"/>
<trkpt lat="55.949966" lon="37.707565"/>
<trkpt lat="55.949984" lon="37.707368"/>
<trkpt lat="55.949996" lon="37.707207"/>
<trkpt lat="55.950006" lon="37.707018"/>
<trkpt lat="55.950004" lon="37.706850"/>
<trkpt lat="55.949993" lon="37.706643"/>
<trkpt lat="55.949979" lon="37.706467"/>
<trkpt lat="55.949961" lon="37.706281"/>
<trkpt lat="55.949956" lon="37.706118"/>
<trkpt lat="55.949959" lon="37.705949"/>
<trkpt lat="55.949970" lon="37.705788"/>
<trkpt lat="55.949995" lon="37.705599"/>
<trkpt lat="55.949993" lon="37.705401"/>
<trkpt lat="55.949981" lon="37.705242"/>
<trkpt lat="55.949992" lon="37.705056"/>
<trkpt lat="55.949998" lon="37.704869"/>
<trkpt lat="55.950015" lon="37.704688"/>
<trkpt lat="55.950001" lon="37.704520"/>
<trkpt lat="55.949965" lon="37.704353"/>
<trkpt lat="55.949951" lon="37.704178"/>
<trkpt lat="55.949969" lon="37.704001"/>
<trkpt lat="55.949989" lon="37.703835"/>
<trkpt lat="55.949998" lon="37.703651"/>
<trkpt lat="55.949990" lon="37.703444"/>
<trkpt lat="55.949964" lon="37.703279"/>
<trkpt lat="55.949964" lon="37.703076"/>
<trkpt lat="55.949970" lon="37.702886"/>
<trkpt lat="55.949982" lon="37.702702"/>
<trkpt lat="55.950002" lon="37.702522"/>
<trkpt lat="55.950014" lon="37.702360"/>
<trkpt lat="55.950020" lon="37.702161"/>
<trkpt lat="55.950033" lon="37.701965"/>
<trkpt lat="55.950034" lon="37.701782"/>
<trkpt lat="55.950028" lon="37.701606"/>
<trkpt lat="55.950032" lon="37.701420"/>
<trkpt lat="55.950020" lon="37.701225"/>
<trkpt lat="55.950017" lon="37.701042"/>
<trkpt lat="55.950025" lon="37.700877"/>
<trkpt lat="55.950036" lon="37.700699"/>
<trkpt lat="55.950013" lon="37.700521"/>
<trkpt lat="55.950011" lon="37.700339"/>
<trkpt lat="55.950068" lon="37.700186"/>
<trkpt lat="55.950159" lon="37.700086"/>
<trkpt lat="55.950267" lon="37.700048"/>
<trkpt lat="55.950357" lon="37.700043"/>
<trkpt lat="55.950464" lon="37.700028"/>
<trkpt lat="55.950555" lon="37.700019"/>
<trkpt lat="55.950661" lon="37.700008"/>
<trkpt lat="55.950763" lon="37.699998"/>
<trkpt lat="55.950874" lon="37.699995"/>
<trkpt lat="55.950966" lon="37.700044"/>
<trkpt lat="55.951054" lon="37.700087"/>
<trkpt lat="55.951170" lon="37.700106"/>
<trkpt lat="55.951279" lon="37.700098"/>
<trkpt lat="55.951381" lon="37.700055"/>
<trkpt lat="55.951492" lon="37.700051"/>
<trkpt lat="55.951586" lon="37.700055"/>
<trkpt lat="55.951677" lon="37.700070"/>
<trkpt lat="55.951790" lon="37.700093"/>
<trkpt lat="55.951888" lon="37.700110"/>
<trkpt lat="55.951991" lon="37.700118"/>
<trkpt lat="55.952093" lon="37.700120"/>
<trkpt lat="55.952185" lon="37.700125"/>
<trkpt lat="55.952295" lon="37.700131"/>
<trkpt lat="55.952385" lon="37.700138"/>
<trkpt lat="55.952486" lon="37.700159"/>
<trkpt lat="55.952579" lon="37.700179"/>
<trkpt lat="55.952688" lon="37.700176"/>
<trkpt lat="55.952783" lon="37.700149"/>
<trkpt lat="55.952890" lon="37.700143"/>
<trkpt lat="55.952995" lon="37.700182"/>
<trkpt lat="55.953085" lon="37.700218"/>
<trkpt lat="55.953183" lon="37.700219"/>
<trkpt lat="55.953286" lon="37.700229"/>
<trkpt lat="55.953381" lon="37.700234"/>
<trkpt lat="55.953488" lon="37.700200"/>
<trkpt lat="55.953592" lon="37.700216"/>
<trkpt lat="55.953693" lon="37.700204"/>
<trkpt lat="55.953784" lon="37.700229"/>
<trkpt lat="55.953888" lon="37.700252"/>
<trkpt lat="55.953979" lon="37.700257"/>
<trkpt lat="55.954070" lon="37.700292"/>
<trkpt lat="55.954159" lon="37.700350"/>
<trkpt lat="55.954279" lon="37.700344"/>
<trkpt lat="55.954371" lon="37.700320"/>
<trkpt lat="55.954484" lon="37.700280"/>
<trkpt lat="55.954593" lon="37.700258"/>
<trkpt lat="55.954699" lon="37.700242"/>
<trkpt lat="55.954796" lon="37.700246"/>
<trkpt lat="55.954854" lon="37.700154"/>
<trkpt lat="55.954861" lon="37.699967"/>
<trkpt lat="55.954863" lon="37.699777"/>
<trkpt lat="55.954852" lon="37.699586"/>
<trkpt lat="55.954857" lon="37.699400"/>
<trkpt lat="55.954883" lon="37.699202"/>
<trkpt lat="55.954896" lon="37.699018"/>
<trkpt lat="55.954880" lon="37.698844"/>
<trkpt lat="55.954885" lon="37.698660"/>
<trkpt lat="55.954896" lon="37.698479"/>
<trkpt lat="55.954895" lon="37.698296"/>
<trkpt lat="55.954891" lon="37.698117"/>
<trkpt lat="55.954885" lon="37.697920"/>
<trkpt lat="55.954871" lon="37.697744"/>
<trkpt lat="55.954849" lon="37.697546"/>
<trkpt lat="55.954842" lon="37.697386"/>
<trkpt lat="55.954846" lon="37.697205"/>
<trkpt lat="55.954860" lon="37.697044"/>
<trkpt lat="55.954885" lon="37.696859"/>
<trkpt lat="55.954893" lon="37.696667"/>
<trkpt lat="55.954895" lon="37.696474"/>
<trkpt lat="55.954892" lon="37.696304"/>
<trkpt lat="55.954889" lon="37.696112"/>
<trkpt lat="55.954884" lon="37.695950"/>
<trkpt lat="55.954876" lon="37.695746"/>
<trkpt lat="55.954874" lon="37.695550"/>
<trkpt lat="55.954874" lon="37.695370"/>
<trkpt lat="55.954875" lon="37.695169"/>
<trkpt lat="55.954875" lon="37.694992"/>
<trkpt lat="55.954873" lon="37.694820"/>
<trkpt lat="55.954869" lon="37.694652"/>
<trkpt lat="55.954864" lon="37.694475"/>
<trkpt lat="55.954863" lon="37.694302"/>
<trkpt lat="55.954863" lon="37.694121"/>
<trkpt lat="55.954863" lon="37.693942"/>
<trkpt lat="55.954862" lon="37.693774"/>
<trkpt lat="55.954861" lon="37.693613"/>
<trkpt lat="55.954871" lon="37.693411"/>
<trkpt lat="55.954884" lon="37.693221"/>
<trkpt lat="55.954908" lon="37.693033"/>
<trkpt lat="55.954939" lon="37.692842"/>
<trkpt lat="55.954950" lon="37.692669"/>
<trkpt lat="55.954960" lon="37.692493"/>
<trkpt lat="55.954960" lon="37.692313"/>
<trkpt lat="55.954932" lon="37.692143"/>
<trkpt lat="55.954903" lon="37.691969"/>
<trkpt lat="55.954893" lon="37.691781"/>
<trkpt lat="55.954908" lon="37.691598"/>
<trkpt lat="55.954929" lon="37.691408"/>
<trkpt lat="55.954936" lon="37.691227"/>
<trkpt lat="55.954934" lon="37.691043"/>
<trkpt lat="55.954938" lon="37.690863"/>
<trkpt lat="55.954933" lon="37.690698"/>
<trkpt lat="55.954902" lon="37.690500"/>
<trkpt lat="55.954867" lon="37.690319"/>
<trkpt lat="55.954881" lon="37.690145"/>
<trkpt lat="55.954908" lon="37.689947"/>
<trkpt lat="55.954902" lon="37.689744"/>
<trkpt lat="55.954849" lon="37.689615"/>
<trkpt lat="55.954755" lon="37.689520"/>
<trkpt lat="55.954758" lon="37.689512"/>
<trkpt lat="55.954863" lon="37.689589"/>
<trkpt lat="55.954931" lon="37.689741"/>
<trkpt lat="55.954980" lon="37.689915"/>
<trkpt lat="55.955004" lon="37.690084"/>
<trkpt lat="55.955007" lon="37.690281"/>
<trkpt lat="55.955019" lon="37.690480"/>
<trkpt lat="55.955027" lon="37.690651"/>
<trkpt lat="55.955046" lon="37.690835"/>
<trkpt lat="55.955064" lon="37.691003"/>
<trkpt lat="55.955073" lon="37.691174"/>
<trkpt lat="55.955076" lon="37.691361"/>
<trkpt lat="55.955060" lon="37.691543"/>
<trkpt lat="55.955058" lon="37.691718"/>
<trkpt lat="55.955068" lon="37.691908"/>
<trkpt lat="55.955073" lon="37.692078"/>
<trkpt lat="55.955074" lon="37.692241"/>
<trkpt lat="55.955088" lon="37.692400"/>
<trkpt lat="55.955098" lon="37.692587"/>
<trkpt lat="55.955111" lon="37.692754"/>
<trkpt lat="55.955129" lon="37.692930"/>
<trkpt lat="55.955107" lon="37.693121"/>
<trkpt lat="55.955069" lon="37.693293"/>
<trkpt lat="55.955039" lon="37.693450"/>
<trkpt lat="55.955037" lon="37.693632"/>
<trkpt lat="55.955030" lon="37.693828"/>
<trkpt lat="55.955012" lon="37.694004"/>
<trkpt lat="55.954993" lon="37.694178"/>
<trkpt lat="55.954999" lon="37.694368"/>
<trkpt lat="55.955039" lon="37.694553"/>
<trkpt lat="55.955084" lon="37.694694"/>
<trkpt lat="55.955079" lon="37.694880"/>
<trkpt lat="55.955034" lon="37.695061"/>
<trkpt lat="55.955053" lon="37.695220"/>
<trkpt lat="55.955062" lon="37.695395"/>
<trkpt lat="55.955059" lon="37.695592"/>
<trkpt lat="55.955045" lon="37.695790"/>
<trkpt lat="55.955038" lon="37.695971"/>
<trkpt lat="55.955029" lon="37.696141"/>
<trkpt lat="55.955015" lon="37.696342"/>
<trkpt lat="55.955016" lon="37.696510"/>
<trkpt lat="55.955017" lon="37.696691"/>
<trkpt lat="55.955017" lon="37.696875"/>
<trkpt lat="55.955019" lon="37.697063"/>
<trkpt lat="55.955025" lon="37.697270"/>
<trkpt lat="55.955027" lon="37.697458"/>
<trkpt lat="55.955031" lon="37.697643"/>
<trkpt lat="55.955044" lon="37.697819"/>
<trkpt lat="55.955063" lon="37.697989"/>
<trkpt lat="55.955081" lon="37.698164"/>
<trkpt lat="55.955092" lon="37.698342"/>
<trkpt lat="55.955087" lon="37.698524"/>
<trkpt lat="55.955077" lon="37.698693"/>
<trkpt lat="55.955063" lon="37.698893"/>
<trkpt lat="55.955064" lon="37.699073"/>
<trkpt lat="55.955045" lon="37.699241"/>
<trkpt lat="55.955026" lon="37.699410"/>
<trkpt lat="55.955029" lon="37.699585"/>
<trkpt lat="55.955034" lon="37.699762"/>
<trkpt lat="55.955036" lon="37.699942"/>
<trkpt lat="55.955053" lon="37.700116"/>
<trkpt lat="55.955042" lon="37.700289"/>
<trkpt lat="55.954989" lon="37.700439"/>
<trkpt lat="55.954901" lon="37.700484"/>
<trkpt lat="55.954799" lon="37.700500"/>
<trkpt lat="55.954704" lon="37.700530"/>
<trkpt lat="55.954612" lon="37.700561"/>
<trkpt lat="55.954501" lon="37.700569"/>
<trkpt lat="55.954397" lon="37.700565"/>
<trkpt lat="55.954302" lon="37.700551"/>
<trkpt lat="55.954210" lon="37.700530"/>
<trkpt lat="55.954109" lon="37.700520"/>
<trkpt lat="55.954017" lon="37.700532"/>
<trkpt lat="55.953912" lon="37.700555"/>
<trkpt lat="55.953814" lon="37.700535"/>
<trkpt lat="55.953711" lon="37.700526"/>
<trkpt lat="55.953596" lon="37.700516"/>
<trkpt lat="55.953477" lon="37.700530"/>
<trkpt lat="55.953370" lon="37.700532"/>
<trkpt lat="55.953267" lon="37.700508"/>
<trkpt lat="55.953161" lon="37.700485"/>
<trkpt lat="55.953069" lon="37.700449"/>
<trkpt lat="55.952961" lon="37.700377"/>
<trkpt lat="55.952863" lon="37.700345"/>
<trkpt lat="55.952758" lon="37.700315"/>
<trkpt lat="55.952648" lon="37.700300"/>
<trkpt lat="55.952551" lon="37.700301"/>
<trkpt lat="55.952442" lon="37.700318"/>
<trkpt lat="55.952328" lon="37.700318"/>
<trkpt lat="55.952236" lon="37.700310"/>
<trkpt lat="55.952121" lon="37.700287"/>
<trkpt lat="55.952011" lon="37.700276"/>
<trkpt lat="55.951910" lon="37.700276"/>
<trkpt lat="55.951815" lon="37.700277"/>
<trkpt lat="55.951714" lon="37.700314"/>
<trkpt lat="55.951605" lon="37.700309"/>
<trkpt lat="55.951499" lon="37.700302"/>
<trkpt lat="55.951398" lon="37.700303"/>
<trkpt lat="55.951305" lon="37.700295"/>
<trkpt lat="55.951198" lon="37.700261"/>
<trkpt lat="55.951092" lon="37.700264"/>
<trkpt lat="55.950983" lon="37.700253"/>
<trkpt lat="55.950891" lon="37.700229"/>
<trkpt lat="55.950799" lon="37.700192"/>
<trkpt lat="55.950705" lon="37.700168"/>
<trkpt lat="55.950607" lon="37.700133"/>
<trkpt lat="55.950512" lon="37.700099"/>
<trkpt lat="55.950405" lon="37.700092"/>
<trkpt lat="55.950295" lon="37.700094"/>
<trkpt lat="55.950191" lon="37.700133"/>
<trkpt lat="55.950112" lon="37.700214"/>
<trkpt lat="55.950115" lon="37.700415"/>
<trkpt lat="55.950127" lon="37.700619"/>
<trkpt lat="55.950124" lon="37.700795"/>
<trkpt lat="55.950134" lon="37.700971"/>
<trkpt lat="55.950151" lon="37.701148"/>
<trkpt lat="55.950146" lon="37.701324"/>
<trkpt lat="55.950130" lon="37.701486"/>
<trkpt lat="55.950106" lon="37.701658"/>
<trkpt lat="55.950116" lon="37.701844"/>
<trkpt lat="55.950123" lon="37.702013"/>
<trkpt lat="55.950120" lon="37.702179"/>
<trkpt lat="55.950147" lon="37.702353"/>
<trkpt lat="55.950169" lon="37.702547"/>
<trkpt lat="55.950181" lon="37.702735"/>
<trkpt lat="55.950160" lon="37.702928"/>
<trkpt lat="55.950123" lon="37.703086"/>
<trkpt lat="55.950094" lon="37.703286"/>
<trkpt lat="55.950098" lon="37.703486"/>
<trkpt lat="55.950111" lon="37.703666"/>
<trkpt lat="55.950130" lon="37.703841"/>
<trkpt lat="55.950152" lon="37.703999"/>
<trkpt lat="55.950176" lon="37.704174"/>
<trkpt lat="55.950191" lon="37.704339"/>
<trkpt lat="55.950203" lon="37.704532"/>
<trkpt lat="55.950199" lon="37.704749"/>
<trkpt lat="55.950159" lon="37.704941"/>
<trkpt lat="55.950137" lon="37.705111"/>
<trkpt lat="55.950123" lon="37.705309"/>
<trkpt lat="55.950120" lon="37.705470"/>
<trkpt lat="55.950119" lon="37.705647"/>
<trkpt lat="55.950114" lon="37.705820"/>
<trkpt lat="55.950109" lon="37.705997"/>
<trkpt lat="55.950111" lon="37.706177"/>
<trkpt lat="55.950120" lon="37.706355"/>
<trkpt lat="55.950125" lon="37.706525"/>
<trkpt lat="55.950124" lon="37.706695"/>
<trkpt lat="55.950120" lon="37.706897"/>
<trkpt lat="55.950110" lon="37.707057"/>
<trkpt lat="55.950095" lon="37.707255"/>
<trkpt lat="55.950093" lon="37.707454"/>
<trkpt lat="55.950081" lon="37.707636"/>
<trkpt lat="55.950064" lon="37.707795"/>
<trkpt lat="55.950066" lon="37.707967"/>
<trkpt lat="55.950064" lon="37.708144"/>
<trkpt lat="55.950008" lon="37.708304"/>
<trkpt lat="55.949920" lon="37.708385"/>
<trkpt lat="55.949828" lon="37.708433"/>
<trkpt lat="55.949733" lon="37.708475"/>
<trkpt lat="55.949627" lon="37.708499"/>
<trkpt lat="55.949525" lon="37.708507"/>
<trkpt lat="55.949429" lon="37.708531"/>
<trkpt lat="55.949324" lon="37.708574"/>
<trkpt lat="55.949232" lon="37.708575"/>
<trkpt lat="55.949141" lon="37.708565"/>
<trkpt lat="55.949045" lon="37.708542"/>
<trkpt lat="55.948943" lon="37.708531"/>
<trkpt lat="55.948832" lon="37.708521"/>
<trkpt lat="55.948718" lon="37.708505"/>
<trkpt lat="55.948606" lon="37.708487"/>
<trkpt lat="55.948509" lon="37.708476"/>
<trkpt lat="55.948406" lon="37.708499"/>
<trkpt lat="55.948316" lon="37.708494"/>
<trkpt lat="55.948224" lon="37.708447"/>
<trkpt lat="55.948130" lon="37.708393"/>
<trkpt lat="55.948035" lon="37.708369"/>
<trkpt lat="55.947924" lon="37.708382"/>
<trkpt lat="55.947819" lon="37.708405"/>
<trkpt lat="55.947723" lon="37.708405"/>
<trkpt lat="55.947622" lon="37.708400"/>
<trkpt lat="55.947508" lon="37.708394"/>
<trkpt lat="55.947395" lon="37.708432"/>
<trkpt lat="55.947288" lon="37.708479"/>
<trkpt lat="55.947183" lon="37.708529"/>
<trkpt lat="55.947085" lon="37.708508"/>
<trkpt lat="55.946989" lon="37.708475"/>
<trkpt lat="55.946895" lon="37.708435"/>
<trkpt lat="55.946792" lon="37.708427"/>
<trkpt lat="55.946689" lon="37.708406"/>
<trkpt lat="55.946575" lon="37.708375"/>
<trkpt lat="55.946464" lon="37.708351"/>
<trkpt lat="55.946358" lon="37.708344"/>
<trkpt lat="55.946266" lon="37.708368"/>
<trkpt lat="55.946173" lon="37.708399"/>
<trkpt lat="55.946067" lon="37.708418"/>
<trkpt lat="55.945967" lon="37.708393"/>
<trkpt lat="55.945862" lon="37.708377"/>
<trkpt lat="55.945754" lon="37.708380"/>
<trkpt lat="55.945642" lon="37.708418"/>
<trkpt lat="55.945536" lon="37.708456"/>
<trkpt lat="55.945443" lon="37.708454"/>
<trkpt lat="55.945346" lon="37.708438"/>
<trkpt lat="55.945239" lon="37.708436"/>
<trkpt lat="55.945132" lon="37.708451"/>
<trkpt lat="55.945013" lon="37.708454"/>
<trkpt lat="55.944918" lon="37.708413"/>
<trkpt lat="55.944814" lon="37.708368"/>
<trkpt lat="55.944718" lon="37.708370"/>
<trkpt lat="55.944611" lon="37.708383"/>
<trkpt lat="55.944508" lon="37.708363"/>
<trkpt lat="55.944410" lon="37.708372"/>
<trkpt lat="55.944307" lon="37.708377"/>
<trkpt lat="55.944210" lon="37.708366"/>
<trkpt lat="55.944110" lon="37.708349"/>
<trkpt lat="55.944017" lon="37.708327"/>
<trkpt lat="55.943927" lon="37.708301"/>
<trkpt lat="55.943835" lon="37.708329"/>
<trkpt lat="55.943733" lon="37.708352"/>
<trkpt lat="55.943612" lon="37.708372"/>
<trkpt lat="55.943506" lon="37.708388"/>
<trkpt lat="55.943411" lon="37.708379"/>
<trkpt lat="55.943303" lon="37.708392"/>
<trkpt lat="55.943213" lon="37.708405"/>
<trkpt lat="55.943111" lon="37.708392"/>
<trkpt lat="55.943020" lon="37.708346"/>
<trkpt lat="55.942928" lon="37.708279"/>
<trkpt lat="55.942830" lon="37.708234"/>
<trkpt lat="55.942724" lon="37.708198"/>
<trkpt lat="55.942617" lon="37.708211"/>
<trkpt lat="55.942500" lon="37.708253"/>
<trkpt lat="55.942393" lon="37.708298"/>
<trkpt lat="55.942300" lon="37.708295"/>
<trkpt lat="55.942190" lon="37.708264"/>
<trkpt lat="55.942082" lon="37.708242"/>
<trkpt lat="55.941981" lon="37.708248"/>
<trkpt lat="55.941885" lon="37.708262"/>
<trkpt lat="55.941774" lon="37.708274"/>
<trkpt lat="55.941678" lon="37.708275"/>
<trkpt lat="55.941583" lon="37.708257"/>
<trkpt lat="55.941474" lon="37.708257"/>
<trkpt lat="55.941382" lon="37.708253"/>
<trkpt lat="55.941283" lon="37.708225"/>
<trkpt lat="55.941187" lon="37.708203"/>
<trkpt lat="55.941073" lon="37.708221"/>
<trkpt lat="55.940972" lon="37.708231"/>
<trkpt lat="55.940854" lon="37.708243"/>
<trkpt lat="55.940733" lon="37.708238"/>
<trkpt lat="55.940623" lon="37.708209"/>
<trkpt lat="55.940518" lon="37.708184"/>
<trkpt lat="55.940416" lon="37.708183"/>
<trkpt lat="55.940303" lon="37.708206"/>
<trkpt lat="55.940194" lon="37.708203"/>
<trkpt lat="55.940094" lon="37.708175"/>
<trkpt lat="55.939996" lon="37.708163"/>
<trkpt lat="55.939892" lon="37.708163"/>
<trkpt lat="55.939789" lon="37.708212"/>
<trkpt lat="55.939691" lon="37.708254"/>
<trkpt lat="55.939588" lon="37.708244"/>
<trkpt lat="55.939488" lon="37.708231"/>
<trkpt lat="55.939383" lon="37.708230"/>
<trkpt lat="55.939279" lon="37.708215"/>
<trkpt lat="55.939169" lon="37.708186"/>
<trkpt lat="55.939078" lon="37.708161"/>
<trkpt lat="55.938987" lon="37.708150"/>
<trkpt lat="55.938891" lon="37.708108"/>
<trkpt lat="55.938796" lon="37.708084"/>
<trkpt lat="55.938688" lon="37.708078"/>
<trkpt lat="55.938588" lon="37.708072"/>
<trkpt lat="55.938487" lon="37.708044"/>
<trkpt lat="55.938388" lon="37.708049"/>
<trkpt lat="55.938284" lon="37.708071"/>
<trkpt lat="55.938183" lon="37.708088"/>
<trkpt lat="55.938087" lon="37.708095"/>
<trkpt lat="55.937997" lon="37.708095"/>
<trkpt lat="55.937890" lon="37.708073"/>
<trkpt lat="55.937796" lon="37.708071"/>
<trkpt lat="55.937704" lon="37.708058"/>
<trkpt lat="55.937607" lon="37.708047"/>
<trkpt lat="55.937511" lon="37.708015"/>
<trkpt lat="55.937401" lon="37.707984"/>
<trkpt lat="55.937300" lon="37.707982"/>
<trkpt lat="55.937209" lon="37.707998"/>
<trkpt lat="55.937094" lon="37.707989"/>
<trkpt lat="55.936987" lon="37.707990"/>
<trkpt lat="55.936894" lon="37.708042"/>
<trkpt lat="55.936791" lon="37.708078"/>
<trkpt lat="55.936679" lon="37.708084"/>
<trkpt lat="55.936580" lon="37.708076"/>
<trkpt lat="55.936472" lon="37.708076"/>
<trkpt lat="55.936360" lon="37.708066"/>
<trkpt lat="55.936263" lon="37.708059"/>
<trkpt lat="55.936174" lon="37.708029"/>
<trkpt lat="55.936076" lon="37.707999"/>
<trkpt lat="55.935980" lon="37.707970"/>
<trkpt lat="55.935886" lon="37.707963"/>
<trkpt lat="55.935787" lon="37.707938"/>
<trkpt lat="55.935690" lon="37.707925"/>
<trkpt lat="55.935581" lon="37.707957"/>
<trkpt lat="55.935473" lon="37.708010"/>
<trkpt lat="55.935369" lon="37.708057"/>
<trkpt lat="55.935278" lon="37.708057"/>
<trkpt lat="55.935184" lon="37.708053"/>
<trkpt lat="55.935083" lon="37.708070"/>
<trkpt lat="55.934979" lon="37.708070"/>
<trkpt lat="55.934874" lon="37.708063"/>
<trkpt lat="55.934779" lon="37.708054"/>
<trkpt lat="55.934682" lon="37.708073"/>
<trkpt lat="55.934585" lon="37.708085"/>
<trkpt lat="55.934491" lon="37.708045"/>
<trkpt lat="55.934393" lon="37.707992"/>
<trkpt lat="55.934300" lon="37.707987"/>
<trkpt lat="55.934190" lon="37.707997"/>
<trkpt lat="55.934079" lon="37.708012"/>
<trkpt lat="55.933975" lon="37.708034"/>
<trkpt lat="55.933876" lon="37.708035"/>
<trkpt lat="55.933780" lon="37.708035"/>
<trkpt lat="55.933678" lon="37.708036"/>
<trkpt lat="55.933576" lon="37.708054"/>
<trkpt lat="55.933467" lon="37.708058"/>
<trkpt lat="55.933364" lon="37.708090"/>
<trkpt lat="55.933271" lon="37.708075"/>
<trkpt lat="55.933172" lon="37.708048"/>
<trkpt lat="55.933063" lon="37.708021"/>
<trkpt lat="55.932960" lon="37.708001"/>
<trkpt lat="55.932870" lon="37.708010"/>
<trkpt lat="55.932764" lon="37.708036"/>
<trkpt lat="55.932670" lon="37.708027"/>
<trkpt lat="55.932571" lon="37.708011"/>
<trkpt lat="55.932462" lon="37.708019"/>
<trkpt lat="55.932346" lon="37.708041"/>
<trkpt lat="55.932244" lon="37.708038"/>
<trkpt lat="55.932142" lon="37.708023"/>
<trkpt lat="55.932049" lon="37.708009"/>
<trkpt lat="55.931957" lon="37.708003"/>
<trkpt lat="55.931849" lon="37.708002"/>
<trkpt lat="55.931740" lon="37.707982"/>
<trkpt lat="55.931651" lon="37.707967"/>
<trkpt lat="55.931553" lon="37.707966"/>
<trkpt lat="55.931456" lon="37.707947"/>
<trkpt lat="55.931341" lon="37.707922"/>
<trkpt lat="55.931238" lon="37.707906"/>
<trkpt lat="55.931137" lon="37.707895"/>
<trkpt lat="55.931024" lon="37.707889"/>
<trkpt lat="55.930933" lon="37.707884"/>
<trkpt lat="55.930833" lon="37.707904"/>
<trkpt lat="55.930732" lon="37.707918"/>
<trkpt lat="55.930628" lon="37.707938"/>
<trkpt lat="55.930528" lon="37.707941"/>
<trkpt lat="55.930431" lon="37.707931"/>
<trkpt lat="55.930337" lon="37.707899"/>
<trkpt lat="55.930235" lon="37.707864"/>
<trkpt lat="55.930133" lon="37.707851"/>
<trkpt lat="55.930037" lon="37.707859"/>
<trkpt lat="55.929941" lon="37.707841"/>
<trkpt lat="55.929839" lon="37.707872"/>
<trkpt lat="55.929739" lon="37.707895"/>
<trkpt lat="55.929643" lon="37.707873"/>
<trkpt lat="55.929548" lon="37.707878"/>
<trkpt lat="55.929443" lon="37.707879"/>
<trkpt lat="55.929337" lon="37.707902"/>
<trkpt lat="55.929233" lon="37.707919"/>
<trkpt lat="55.929127" lon="37.707917"/>
<trkpt lat="55.929037" lon="37.707891"/>
<trkpt lat="55.928937" lon="37.707874"/>
<trkpt lat="55.928821" lon="37.707833"/>
<trkpt lat="55.928714" lon="37.707813"/>
<trkpt lat="55.928621" lon="37.707821"/>
<trkpt lat="55.928516" lon="37.707840"/>
<trkpt lat="55.928419" lon="37.707852"/>
<trkpt lat="55.928323" lon="37.707852"/>
<trkpt lat="55.928228" lon="37.707867"/>
<trkpt lat="55.928136" lon="37.707861"/>
<trkpt lat="55.928033" lon="37.707841"/>
<trkpt lat="55.927935" lon="37.707813"/>
<trkpt lat="55.927832" lon="37.707799"/>
<trkpt lat="55.927740" lon="37.707814"/>
<trkpt lat="55.927629" lon="37.707815"/>
<trkpt lat="55.927532" lon="37.707836"/>
<trkpt lat="55.927427" lon="37.707830"/>
<trkpt lat="55.927314" lon="37.707804"/>
<trkpt lat="55.927201" lon="37.707823"/>
<trkpt lat="55.927108" lon="37.707843"/>
<trkpt lat="55.927010" lon="37.707833"/>
<trkpt lat="55.926904" lon="37.707769"/>
<trkpt lat="55.926804" lon="37.707752"/>
<trkpt lat="55.926695" lon="37.707747"/>
<trkpt lat="55.926599" lon="37.707760"/>
<trkpt lat="55.926485" lon="37.707774"/>
<trkpt lat="55.926391" lon="37.707788"/>
<trkpt lat="55.926279" lon="37.707826"/>
<trkpt lat="55.926185" lon="37.707843"/>
<trkpt lat="55.926069" lon="37.707857"/>
<trkpt lat="55.925961" lon="37.707864"/>
<trkpt lat="55.925848" lon="37.707869"/>
<trkpt lat="55.925732" lon="37.707897"/>
<trkpt lat="55.925616" lon="37.707912"/>
<trkpt lat="55.925499" lon="37.707884"/>
<trkpt lat="55.925390" lon="37.707887"/>
<trkpt lat="55.925286" lon="37.707893"/>
<trkpt lat="55.925190" lon="37.707854"/>
<trkpt lat="55.925087" lon="37.707832"/>
<trkpt lat="55.924997" lon="37.707846"/>
<trkpt lat="55.924880" lon="37.707853"/>
<trkpt lat="55.924770" lon="37.707840"/>
<trkpt lat="55.924666" lon="37.707807"/>
<trkpt lat="55.924566" lon="37.707816"/>
<trkpt lat="55.924471" lon="37.707831"/>
<trkpt lat="55.924370" lon="37.707847"/>
<trkpt lat="55.924259" lon="37.707832"/>
<trkpt lat="55.924153" lon="37.707810"/>
<trkpt lat="55.924058" lon="37.707810"/>
<trkpt lat="55.923962" lon="37.707816"/>
<trkpt lat="55.923862" lon="37.707820"/>
<trkpt lat="55.923759" lon="37.707801"/>
<trkpt lat="55.923653" lon="37.707788"/>
<trkpt lat="55.923553" lon="37.707790"/>
<trkpt lat="55.923445" lon="37.707805"/>
<trkpt lat="55.923354" lon="37.707822"/>
<trkpt lat="55.923245" lon="37.707765"/>
<trkpt lat="55.923165" lon="37.707657"/>
<trkpt lat="55.923093" lon="37.707543"/>
<trkpt lat="55.923031" lon="37.707423"/>
<trkpt lat="55.922953" lon="37.707285"/>
<trkpt lat="55.922861" lon="37.707241"/>
</trkseg></trk></gpx>